NORAD_CAT_ID,OBJECT_NAME,OBJECT_TYPE,EPOCH,MEAN_MOTION,ECCENTRICITY,INCLINATION,RA_OF_ASC_NODE,ARG_OF_PERICENTER,MEAN_ANOMALY,BSTAR,MEAN_MOTION_DOT,MEAN_MOTION_DDOT,TLE_LINE0,TLE_LINE1,TLE_LINE2,SEMIMAJOR_AXIS,PERIOD,APOGEE,PERIGEE,DECAYED
51980.0,STARLINK-3649,PAYLOAD,2022-05-30 12:00:00,15.08829198,0.0001641,53.2127,110.5438,59.7168,36.6222,-0.0013241,-0.00021293,0.0,0 STARLINK-3649,1 51980U 22025AA  22150.50001157 -.00021293  00000-0 -13241-2 0  9995,2 51980  53.2127 110.5438 0001641  59.7168  36.6222 15.08829198 13933,6917.913000000001,95.438,540.914,538.643,0.0
51980.0,STARLINK-3649,PAYLOAD,2022-05-30 14:00:01,15.08829601,0.0001597,53.2128,110.1692,62.5318,126.7003,-0.0014889,-0.00023899,0.0,0 STARLINK-3649,1 51980U 22025AA  22150.58334491 -.00023899  00000-0 -14889-2 0  9996,2 51980  53.2128 110.1692 0001597  62.5318 126.7003 15.08829601  1306,6917.9119999999975,95.438,540.882,538.672,0.0
51980.0,STARLINK-3649,PAYLOAD,2022-05-30 22:00:00,15.08827673,0.0001641999999999,53.2133,108.6724,68.2151,132.5848,0.00042311,6.45e-05,0.0,0 STARLINK-3649,1 51980U 22025AA  22150.91667824  .00006450  00000-0  42311-3 0  9996,2 51980  53.2133 108.6724 0001642  68.2151 132.5848 15.08827673  1308,6917.918000000002,95.438,540.919,538.6469999999998,0.0
51980.0,STARLINK-3649,PAYLOAD,2022-05-31 03:28:23,15.08827366,0.0001511,53.2149,107.649,60.2459,299.8684,-8.062899999999999e-05,-1.571e-05,0.0,0 STARLINK-3649,1 51980U 22025AA  22151.14471360 -.00001571  00000-0 -80629-4 0  9996,2 51980  53.2149 107.6490 0001511  60.2459 299.8684 15.08827366 14030,6917.919,95.438,540.8290000000002,538.739,0.0
51980.0,STARLINK-3649,PAYLOAD,2022-05-31 06:00:02,15.08812492,0.0001781,53.2135,107.1777,59.9171,152.5325,0.0019129,0.00030264,0.0,0 STARLINK-3649,1 51980U 22025AA  22151.25002315  .00030264  00000-0  19129-2 0  9992,2 51980  53.2135 107.1777 0001781  59.9171 152.5325 15.08812492  1300,6917.964,95.439,541.062,538.597,0.0
51980.0,STARLINK-3649,PAYLOAD,2022-05-31 20:00:01,15.08831043,0.0001693,53.2139,104.557,68.2423,74.4173,0.0020828,0.00033007,0.0,0 STARLINK-3649,1 51980U 22025AA  22151.83334491  .00033007  00000-0  20828-2 0  9995,2 51980  53.2139 104.5570 0001693  68.2423  74.4173 15.08831043 14143,6917.908,95.438,540.944,538.602,0.0
51980.0,STARLINK-3649,PAYLOAD,2022-05-31 20:57:37,15.08830411,0.0001595999999999,53.2152,104.3783,60.618,299.4972,4.0514e-05,3.57e-06,0.0,0 STARLINK-3649,1 51980U 22025AA  22151.87335133  .00000357  00000-0  40514-4 0  9991,2 51980  53.2152 104.3783 0001596  60.6180 299.4972 15.08830411 13053,6917.91,95.438,540.879,538.6709999999998,0.0
51980.0,STARLINK-3649,PAYLOAD,2022-06-01 12:00:00,15.08876242,0.0001753,53.2141,101.5653,61.8617,103.9957,-0.0028233,-0.00044986,0.0,0 STARLINK-3649,1 51980U 22025AA  22152.50001157 -.00044986  00000-0 -28233-2 0  9998,2 51980  53.2141 101.5653 0001753  61.8617 103.9957 15.08876242 14245,6917.77,95.435,540.847,538.422,0.0
51980.0,STARLINK-3649,PAYLOAD,2022-06-01 20:00:01,15.08837084,0.0001659,53.2146,100.0679,68.1617,109.317,0.00050693,7.788e-05,0.0,0 STARLINK-3649,1 51980U 22025AA  22152.83334491  .00007788  00000-0  50693-3 0  9997,2 51980  53.2146 100.0679 0001659  68.1617 109.3170 15.08837084  1308,6917.889,95.438,540.9019999999998,538.607,0.0
51980.0,STARLINK-3649,PAYLOAD,2022-06-03 03:00:44,15.08839246,0.0001598,53.2151,94.2669,63.6355,296.4801,2.0892e-05,4.4e-07,0.0,0 STARLINK-3649,1 51980U 22025AA  22154.12550940  .00000044  00000-0  20892-4 0  9997,2 51980  53.2151  94.2669 0001598  63.6355 296.4801 15.08839246 14482,6917.8830000000025,95.438,540.8530000000002,538.6419999999998,0.0
51980.0,STARLINK-3649,PAYLOAD,2022-06-03 12:33:03,15.08856826,0.0001535,53.2157,92.4832,58.4118,301.7024,-0.00040793,-6.777e-05,0.0,0 STARLINK-3649,1 51980U 22025AA  22154.52295408 -.00006777  00000-0 -40793-3 0  9998,2 51980  53.2157  92.4832 0001535  58.4118 301.7024 15.08856826 13456,6917.829000000002,95.436,540.756,538.632,0.0
51980.0,STARLINK-3649,PAYLOAD,2022-06-04 02:51:31,15.0883359,0.000155,53.2154,89.8067,59.7726,300.3419,-2.8406e-06,-3.33e-06,0.0,0 STARLINK-3649,1 51980U 22025AA  22155.11911540 -.00000333  00000-0 -28406-5 0  9997,2 51980  53.2154  89.8067 0001550  59.7726 300.3419 15.08833590 14636,6917.9,95.438,540.837,538.693,0.0
51980.0,STARLINK-3649,PAYLOAD,2022-06-04 12:23:50,15.08839096,0.0001564,53.2152,88.0223,61.0406,299.0743,1.1284e-05,-1.08e-06,0.0,0 STARLINK-3649,1 51980U 22025AA  22155.51655226 -.00000108  00000-0  11284-4 0  9991,2 51980  53.2152  88.0223 0001564  61.0406 299.0743 15.08839096 13602,6917.8830000000025,95.438,540.83,538.6659999999998,0.0
51980.0,STARLINK-3649,PAYLOAD,2022-06-05 20:00:01,15.088402300000002,0.0001527,53.2139,82.1115,71.8392,244.7489,0.00021343,3.11e-05,0.0,0 STARLINK-3649,1 51980U 22025AA  22156.83334491  .00003110  00000-0  21343-3 0  9996,2 51980  53.2139  82.1115 0001527  71.8392 244.7489 15.08840230 14892,6917.88,95.438,540.8009999999998,538.688,0.0
51980.0,STARLINK-3649,PAYLOAD,2022-06-05 22:00:00,15.08852958,0.0001551,53.2139,81.738,69.1713,340.3123,-0.0016385,-0.00026279,0.0,0 STARLINK-3649,1 51980U 22025AA  22156.91667824 -.00026279  00000-0 -16385-2 0  9996,2 51980  53.2139  81.7380 0001551  69.1713 340.3123 15.08852958  1305,6917.840999999999,95.437,540.779,538.633,0.0
51980.0,STARLINK-3649,PAYLOAD,2022-06-06 14:00:01,15.08833977,0.0001545,53.2135,78.7443,69.3397,3.3473,0.0013434,0.00021153,0.0,0 STARLINK-3649,1 51980U 22025AA  22157.58334491  .00021153  00000-0  13434-2 0  9997,2 51980  53.2135  78.7443 0001545  69.3397   3.3473 15.08833977  1304,6917.899,95.438,540.8330000000002,538.695,0.0
51980.0,STARLINK-3649,PAYLOAD,2022-06-06 22:00:00,15.08863529,0.000171,53.2137,77.2485,69.9717,14.3098,-0.0034933,-0.00055492,0.0,0 STARLINK-3649,1 51980U 22025AA  22157.91667824 -.00055492  00000-0 -34933-2 0  9995,2 51980  53.2137  77.2485 0001710  69.9717  14.3098 15.08863529  1303,6917.808000000001,95.436,540.856,538.491,0.0
51980.0,STARLINK-3649,PAYLOAD,2022-06-07 06:00:00,15.08814329,0.0001794,53.2135,75.753,63.6224,32.2636,0.0029272,0.00046574,0.0,0 STARLINK-3649,1 51980U 22025AA  22158.25001157  .00046574  00000-0  29272-2 0  9993,2 51980  53.2135  75.7530 0001794  63.6224  32.2636 15.08814329 15105,6917.959,95.439,541.065,538.5830000000002,0.0
51980.0,STARLINK-3649,PAYLOAD,2022-06-07 14:00:01,15.08822382,0.0001688,53.2138,74.2546,70.7351,36.7431,0.0023712,0.00037633,0.0,0 STARLINK-3649,1 51980U 22025AA  22158.58334491  .00037633  00000-0  23712-2 0  9998,2 51980  53.2138  74.2546 0001688  70.7351  36.7431 15.08822382  1308,6917.934,95.439,540.967,538.631,0.0
51980.0,STARLINK-3649,PAYLOAD,2022-06-07 22:00:00,15.08880696,0.0001769,53.214,72.7588,69.8239,49.2445,-0.0040577,-0.00064362,0.0,0 STARLINK-3649,1 51980U 22025AA  22158.91667824 -.00064362  00000-0 -40577-2 0  9993,2 51980  53.2140  72.7588 0001769  69.8239  49.2445 15.08880696 15215,6917.755999999999,95.435,540.845,538.3969999999998,0.0
51980.0,STARLINK-3649,PAYLOAD,2022-06-08 14:00:01,15.08828323,0.000162,53.2143,69.7649,69.6003,72.6798,0.0016801,0.00026543,0.0,0 STARLINK-3649,1 51980U 22025AA  22159.58334491  .00026543  00000-0  16801-2 0  9998,2 51980  53.2143  69.7649 0001620  69.6003  72.6798 15.08828323 15316,6917.916,95.438,540.9019999999998,538.66,0.0
51980.0,STARLINK-3649,PAYLOAD,2022-06-08 22:00:01,15.08846313,0.0001679,53.2146,68.2692,67.8805,86.0497,-0.0026274,-0.00041868,0.0,0 STARLINK-3649,1 51980U 22025AA  22159.91668981 -.00041868  00000-0 -26274-2 0  9993,2 51980  53.2146  68.2692 0001679  67.8805  86.0497 15.08846313  1303,6917.861,95.437,540.888,538.565,0.0
51980.0,STARLINK-3649,PAYLOAD,2022-06-09 04:00:00,15.08800521,0.0001721999999999,53.2147,67.148,62.479,10.0842,0.0030968,0.00049289,0.0,0 STARLINK-3649,1 51980U 22025AA  22160.16667824  .00049289  00000-0  30968-2 0  9995,2 51980  53.2147  67.1480 0001722  62.4790  10.0842 15.08800521 15396,6918.001,95.44,541.057,538.675,0.0
51980.0,STARLINK-3649,PAYLOAD,2022-06-09 14:00:01,15.088092800000002,0.0001595,53.2149,65.2754,69.5897,107.4449,0.0026632,0.00042316,0.0,0 STARLINK-3649,1 51980U 22025AA  22160.58334491  .00042316  00000-0  26632-2 0  9999,2 51980  53.2149  65.2754 0001595  69.5897 107.4449 15.08809280  1306,6917.974,95.439,540.943,538.736,0.0
51980.0,STARLINK-3649,PAYLOAD,2022-06-09 20:00:01,15.08852468,0.0001668,53.2152,64.1536,70.4561,25.2551,-0.001026,-0.00016585,0.0,0 STARLINK-3649,1 51980U 22025AA  22160.83334491 -.00016585  00000-0 -10260-2 0  9998,2 51980  53.2152  64.1536 0001668  70.4561  25.2551 15.08852468 15498,6917.842,95.437,540.861,538.553,0.0
51980.0,STARLINK-3649,PAYLOAD,2022-06-09 22:00:00,15.08851297,0.0001694,53.2152,63.7801,68.0922,120.5207,-0.0012656,-0.0002038,0.0,0 STARLINK-3649,1 51980U 22025AA  22160.91667824 -.00020380  00000-0 -12656-2 0  9995,2 51980  53.2152  63.7801 0001694  68.0922 120.5207 15.08851297  1302,6917.846,95.437,540.883,538.539,0.0
51980.0,STARLINK-3649,PAYLOAD,2022-06-10 12:00:02,15.08847682,0.0001584,53.2154,61.1601,70.0563,48.9261,0.00013301,1.83e-05,0.0,0 STARLINK-3649,1 51980U 22025AA  22161.50002315  .00001830  00000-0  13301-3 0  9995,2 51980  53.2154  61.1601 0001584  70.0563  48.9261 15.08847682 15600,6917.857,95.437,540.818,538.626,0.0
51980.0,STARLINK-3649,PAYLOAD,2022-06-10 14:00:01,15.08842017,0.0001565999999999,53.2153,60.7857,71.5751,140.2487,0.00071293,0.00011077,0.0,0 STARLINK-3649,1 51980U 22025AA  22161.58334491  .00011077  00000-0  71293-3 0  9994,2 51980  53.2153  60.7857 0001566  71.5751 140.2487 15.08842017  1307,6917.874,95.437,540.823,538.656,0.0
51980.0,STARLINK-3649,PAYLOAD,2022-06-10 22:00:00,15.08842298,0.000159,53.2155,59.2907,67.8781,155.5124,-0.0011834,-0.00019074,0.0,0 STARLINK-3649,1 51980U 22025AA  22161.91667824 -.00019074  00000-0 -11834-2 0  9991,2 51980  53.2155  59.2907 0001590  67.8781 155.5124 15.08842298 15668,6917.873000000001,95.437,540.8380000000002,538.638,0.0
